FM105
1 41181C 15081C   19033.66005876  .00000000  00000-0  00000-0 0 16093
2 41181  47.0017 138.3850 0001823 328.1216  31.9553 14.43329231234008
